NORAD_CAT_ID,OBJECT_NAME,OBJECT_TYPE,EPOCH,MEAN_MOTION,ECCENTRICITY,INCLINATION,RA_OF_ASC_NODE,ARG_OF_PERICENTER,MEAN_ANOMALY,BSTAR,MEAN_MOTION_DOT,MEAN_MOTION_DDOT,TLE_LINE0,TLE_LINE1,TLE_LINE2,SEMIMAJOR_AXIS,PERIOD,APOGEE,PERIGEE,DECAYED
52457.0,STARLINK-3899,PAYLOAD,2024-01-25 22:38:17,15.08837351,0.0001661,53.2182,302.5956,112.9497,247.167,-4.7068e-05,-1.037e-05,0.0,0 STARLINK-3899,1 52457U 22049G   24025.94325241 -.00001037  00000-0 -47068-4 0  9995,2 52457  53.2182 302.5956 0001661 112.9497 247.1670 15.08837351 95308,6917.888,95.438,540.903,538.604,0.0
52457.0,STARLINK-3899,PAYLOAD,2024-01-26 01:49:03,15.0882796,0.0001568,53.2176,301.9973,96.7207,263.3964,0.00033322,5.017e-05,0.0,0 STARLINK-3899,1 52457U 22049G   24026.07573965  .00005017  00000-0  33322-3 0  9995,2 52457  53.2176 301.9973 0001568  96.7207 263.3964 15.08827960 95487,6917.917,95.438,540.867,538.697,0.0
52457.0,STARLINK-3899,PAYLOAD,2024-01-27 01:39:50,15.0884874,0.0001462,53.217,297.5406,89.5913,270.5247,0.00030617,4.589e-05,0.0,0 STARLINK-3899,1 52457U 22049G   24027.06933151  .00004589  00000-0  30617-3 0  9999,2 52457  53.2170 297.5406 0001462  89.5913 270.5247 15.08848740 95639,6917.854,95.437,540.73,538.707,0.0
52457.0,STARLINK-3899,PAYLOAD,2024-01-27 22:19:51,15.08841039,0.0001453,53.2172,293.6744,95.4287,264.6871,0.00011072,1.475e-05,0.0,0 STARLINK-3899,1 52457U 22049G   24027.93045589  .00001475  00000-0  11072-3 0  9999,2 52457  53.2172 293.6744 0001453  95.4287 264.6871 15.08841039 95601,6917.877,95.437,540.747,538.737,0.0
52457.0,STARLINK-3899,PAYLOAD,2024-01-27 23:55:14,15.08841854,0.0001622,53.2177,293.3757,81.8812,278.2364,0.00014335,1.994e-05,0.0,0 STARLINK-3899,1 52457U 22049G   24027.99669689  .00001994  00000-0  14335-3 0  9999,2 52457  53.2177 293.3757 0001622  81.8812 278.2364 15.08841854 95779,6917.875,95.437,540.862,538.618,0.0
52457.0,STARLINK-3899,PAYLOAD,2024-01-28 22:10:38,15.08836103,0.0001642,53.217,289.2146,102.0242,258.0934,0.00030203,4.522e-05,0.0,0 STARLINK-3899,1 52457U 22049G   24028.92405921  .00004522  00000-0  30203-3 0  9992,2 52457  53.2170 289.2146 0001642 102.0242 258.0934 15.08836103 95751,6917.892,95.438,540.893,538.621,0.0
52457.0,STARLINK-3899,PAYLOAD,2024-01-28 23:46:01,15.08846172,0.0001575,53.2167,288.9168,86.5044,273.6128,6.5356e-05,7.52e-06,0.0,0 STARLINK-3899,1 52457U 22049G   24028.99029468  .00000752  00000-0  65356-4 0  9996,2 52457  53.2167 288.9168 0001575  86.5044 273.6128 15.08846172 95764,6917.862,95.437,540.816,538.637,0.0
52457.0,STARLINK-3899,PAYLOAD,2024-01-30 02:47:34,15.08849603,0.0001587,53.2162,283.8609,89.2788,270.8386,0.00021133,3.078e-05,0.0,0 STARLINK-3899,1 52457U 22049G   24030.11636999  .00003078  00000-0  21133-3 0  9994,2 52457  53.2162 283.8609 0001587  89.2788 270.8386 15.08849603 96095,6917.851,95.437,540.814,538.618,0.0
52457.0,STARLINK-3899,PAYLOAD,2024-01-30 20:16:49,15.08838074,0.0001375,53.2154,280.5855,88.1878,271.9272,-5.4786e-05,-1.16e-05,0.0,0 STARLINK-3899,1 52457U 22049G   24030.84501500 -.00001160  00000-0 -54786-4 0  9996,2 52457  53.2154 280.5855 0001375  88.1878 271.9272 15.08838074 96205,6917.886,95.438,540.702,538.8,0.0
52457.0,STARLINK-3899,PAYLOAD,2024-01-30 21:52:12,15.08838118,0.0001368,53.2164,280.288,87.1384,272.9765,-1.4415e-05,-5.17e-06,0.0,0 STARLINK-3899,1 52457U 22049G   24030.91125800 -.00000517  00000-0 -14415-4 0  9999,2 52457  53.2164 280.2880 0001368  87.1384 272.9765 15.08838118 96054,6917.886,95.438,540.698,538.805,0.0
52457.0,STARLINK-3899,PAYLOAD,2024-01-30 23:27:35,15.0883912,0.0001405,53.2165,279.9905,90.1526,269.9627,-1.0985e-05,-4.63e-06,0.0,0 STARLINK-3899,1 52457U 22049G   24030.97749679 -.00000463  00000-0 -10985-4 0  9999,2 52457  53.2165 279.9905 0001405  90.1526 269.9627 15.08839120 96060,6917.883,95.438,540.72,538.776,0.0
52457.0,STARLINK-3899,PAYLOAD,2024-01-31 16:56:50,15.0882989,0.0001556,53.2173,276.7225,98.0313,262.0856,8.6049e-05,1.081e-05,0.0,0 STARLINK-3899,1 52457U 22049G   24031.70613904  .00001081  00000-0  86049-4 0  9991,2 52457  53.2173 276.7225 0001556  98.0313 262.0856 15.08829890 96170,6917.911,95.438,540.853,538.7,0.0
52457.0,STARLINK-3899,PAYLOAD,2024-02-01 15:12:14,15.08834058,0.0001551,53.2172,272.5589,97.6651,262.4517,9.1292e-05,1.165e-05,0.0,0 STARLINK-3899,1 52457U 22049G   24032.63350149  .00001165  00000-0  91292-4 0  9992,2 52457  53.2172 272.5589 0001551  97.6651 262.4517 15.08834058 96317,6917.899,95.438,540.837,538.691,0.0
52457.0,STARLINK-3899,PAYLOAD,2024-02-02 15:03:01,15.08839219,0.000115,53.2171,268.0998,93.3616,266.7507,9.3586e-05,1.202e-05,0.0,0 STARLINK-3899,1 52457U 22049G   24033.62710098  .00001202  00000-0  93586-4 0  9995,2 52457  53.2171 268.0998 0001150  93.3616 266.7507 15.08839219 96465,6917.883,95.438,540.543,538.952,0.0
52457.0,STARLINK-3899,PAYLOAD,2024-02-02 19:49:10,15.08840975,0.0001173,53.2169,267.208,92.5138,267.5989,0.00010097,1.32e-05,0.0,0 STARLINK-3899,1 52457U 22049G   24033.82581975  .00001320  00000-0  10097-3 0  9993,2 52457  53.2169 267.2080 0001173  92.5138 267.5989 15.08840975 96655,6917.877,95.437,540.554,538.931,0.0
52457.0,STARLINK-3899,PAYLOAD,2024-02-02 21:24:33,15.08841902,0.0001305,53.2154,266.91,85.2402,274.8739,0.00010872,1.443e-05,0.0,0 STARLINK-3899,1 52457U 22049G   24033.89205904  .00001443  00000-0  10872-3 0  9992,2 52457  53.2154 266.9100 0001305  85.2402 274.8739 15.08841902 96507,6917.875,95.437,540.642,538.837,0.0
52457.0,STARLINK-3899,PAYLOAD,2024-02-02 22:59:56,15.08843114,0.0001378,53.2161,266.6128,86.0197,274.0953,0.00011889,1.605e-05,0.0,0 STARLINK-3899,1 52457U 22049G   24033.95829819  .00001605  00000-0  11889-3 0  9995,2 52457  53.2161 266.6128 0001378  86.0197 274.0953 15.08843114 96510,6917.871,95.437,540.689,538.783,0.0
52457.0,STARLINK-3899,PAYLOAD,2024-02-03 21:15:21,15.08839078,0.0001522,53.2162,262.45,78.3327,281.7836,6.477e-05,7.43e-06,0.0,0 STARLINK-3899,1 52457U 22049G   24034.88566347  .00000743  00000-0  64770-4 0  9992,2 52457  53.2162 262.4500 0001522  78.3327 281.7836 15.08839078 96811,6917.883,95.438,540.801,538.695,0.0
52457.0,STARLINK-3899,PAYLOAD,2024-02-04 00:26:07,15.08842283,0.0001515,53.2163,261.855,78.8432,281.273,8.5058e-05,1.066e-05,0.0,0 STARLINK-3899,1 52457U 22049G   24035.01814082  .00001066  00000-0  85058-4 0  9991,2 52457  53.2163 261.8550 0001515  78.8432 281.2730 15.08842283 96678,6917.873,95.437,540.786,538.69,0.0
52457.0,STARLINK-3899,PAYLOAD,2024-02-04 21:06:08,15.08841071,0.0001525,53.216,257.9891,81.5488,278.5677,3.0837e-05,2.03e-06,0.0,0 STARLINK-3899,1 52457U 22049G   24035.87926268  .00000203  00000-0  30837-4 0  9992,2 52457  53.2160 257.9891 0001525  81.5488 278.5677 15.08841071 96800,6917.877,95.437,540.797,538.687,0.0
52457.0,STARLINK-3899,PAYLOAD,2024-02-05 08:13:49,15.08843157,0.0001384,53.216,255.9065,95.8599,264.2551,8.8743e-05,1.125e-05,0.0,0 STARLINK-3899,1 52457U 22049G   24036.34293856  .00001125  00000-0  88743-4 0  9998,2 52457  53.2160 255.9065 0001384  95.8599 264.2551 15.08843157 97031,6917.871,95.437,540.693,538.778,0.0
52457.0,STARLINK-3899,PAYLOAD,2024-02-05 20:56:54,15.08844174,0.0001424,53.2161,253.5272,100.4522,259.6631,7.4478e-05,8.98e-06,0.0,0 STARLINK-3899,1 52457U 22049G   24036.87285765  .00000898  00000-0  74478-4 0  9992,2 52457  53.2161 253.5272 0001424 100.4522 259.6631 15.08844174 96957,6917.868,95.437,540.718,538.748,0.0
52457.0,STARLINK-3899,PAYLOAD,2024-02-06 00:07:40,15.08845915,0.0001422,53.216,252.9319,103.923,256.192,8.6464e-05,1.089e-05,0.0,0 STARLINK-3899,1 52457U 22049G   24037.00533562  .00001089  00000-0  86464-4 0  9990,2 52457  53.2160 252.9319 0001422 103.9230 256.1920 15.08845915 96972,6917.862,95.437,540.711,538.744,0.0
52457.0,STARLINK-3899,PAYLOAD,2024-02-06 19:12:18,15.0884113,0.0001503,53.2165,249.3617,106.7253,253.3905,5.5952e-05,6.03e-06,0.0,0 STARLINK-3899,1 52457U 22049G   24037.80021887  .00000603  00000-0  55952-4 0  9999,2 52457  53.2165 249.3617 0001503 106.7253 253.3905 15.08841130 97253,6917.877,95.437,540.782,538.702,0.0
52457.0,STARLINK-3899,PAYLOAD,2024-02-07 20:38:29,15.0884154,0.0001433,53.2168,244.6066,94.2762,265.8394,5.1075e-05,5.25e-06,0.0,0 STARLINK-3899,1 52457U 22049G   24038.86006027  .00000525  00000-0  51075-4 0  9990,2 52457  53.2168 244.6066 0001433  94.2762 265.8394 15.08841540 97413,6917.876,95.437,540.732,538.749,0.0
52457.0,STARLINK-3899,PAYLOAD,2024-02-08 14:07:44,15.08832276,0.0001474,53.2171,241.3389,104.2073,255.9083,2.4871e-05,1.08e-06,0.0,0 STARLINK-3899,1 52457U 22049G   24039.58870864  .00000108  00000-0  24871-4 0  9999,2 52457  53.2171 241.3389 0001474 104.2073 255.9083 15.08832276 97366,6917.904,95.438,540.789,538.749,0.0
52457.0,STARLINK-3899,PAYLOAD,2024-02-08 18:53:53,15.08832167,0.0001456,53.217,240.4469,105.0262,255.0892,1.8357e-05,4e-08,0.0,0 STARLINK-3899,1 52457U 22049G   24039.78742963  .00000004  00000-0  18357-4 0  9996,2 52457  53.2170 240.4469 0001456 105.0262 255.0892 15.08832167 97552,6917.904,95.438,540.777,538.762,0.0
52457.0,STARLINK-3899,PAYLOAD,2024-02-08 20:29:17,15.08831953,0.0001444,53.217,240.1494,104.3916,255.7237,1.4802e-05,-5.2e-07,0.0,0 STARLINK-3899,1 52457U 22049G   24039.85367004 -.00000052  00000-0  14802-4 0  9998,2 52457  53.2170 240.1494 0001444 104.3916 255.7237 15.08831953 97408,6917.905,95.438,540.769,538.771,0.0
52457.0,STARLINK-3899,PAYLOAD,2024-02-09 18:44:40,15.08841187,0.0001407,53.2168,235.9865,106.4331,253.6816,9.9822e-05,1.301e-05,0.0,0 STARLINK-3899,1 52457U 22049G   24040.78102390  .00001301  00000-0  99822-4 0  9999,2 52457  53.2168 235.9865 0001407 106.4331 253.6816 15.08841187 97705,6917.877,95.437,540.715,538.768,0.0
52457.0,STARLINK-3899,PAYLOAD,2024-02-10 12:13:55,15.08838276,0.000127,53.2162,232.7141,93.5959,266.5178,0.00013588,1.875e-05,0.0,0 STARLINK-3899,1 52457U 22049G   24041.50966618  .00001875  00000-0  13588-3 0  9991,2 52457  53.2162 232.7141 0001270  93.5959 266.5178 15.08838276 97654,6917.886,95.438,540.629,538.872,0.0
